[{"OBJECT_NAME":"SILVERSAT","OBJECT_ID":"1998-067XV","EPOCH":"2026-03-09T06:21:04.624704","MEAN_MOTION":15.72057374,"ECCENTRICITY":0.00055278,"INCLINATION":51.6252,"RA_OF_ASC_NODE":67.052,"ARG_OF_PERICENTER":73.9744,"MEAN_ANOMALY":286.1863,"EPHEMERIS_TYPE":0,"CLASSIFICATION_TYPE":"U","NORAD_CAT_ID":66909,"ELEMENT_SET_NO":999,"REV_AT_EPOCH":1512,"BSTAR":0.0015444738,"MEAN_MOTION_DOT":0.00211631,"MEAN_MOTION_DDOT":0},{"OBJECT_NAME":"STARLINK-36394","OBJECT_ID":"2026-016F","EPOCH":"2026-03-09T17:11:11.874624","MEAN_MOTION":15.75240486,"ECCENTRICITY":0.00013847,"INCLINATION":97.2853,"RA_OF_ASC_NODE":129.1435,"ARG_OF_PERICENTER":80.6821,"MEAN_ANOMALY":279.4601,"EPHEMERIS_TYPE":0,"CLASSIFICATION_TYPE":"U","NORAD_CAT_ID":67566,"ELEMENT_SET_NO":999,"REV_AT_EPOCH":680,"BSTAR":0.0013747673,"MEAN_MOTION_DOT":0.00210519,"MEAN_MOTION_DDOT":0}]
