SILVERSAT               
1 66909U 98067XV  26068.26463686  .00211631  00000+0  15445-2 0  9997
2 66909  51.6252  67.0520 0005527  73.9744 286.1863 15.72057374 15120
STARLINK-36394          
1 67566U 26016F   26068.71610966  .00210519  00000+0  13748-2 0  9995
2 67566  97.2853 129.1435 0001385  80.6821 279.4601 15.75240485  6807
